[{"OBJECT_NAME":"STARLINK-11189 [DTC]","OBJECT_ID":"2024-124F","EPOCH":"2026-03-09T12:40:24.596544","MEAN_MOTION":15.69709279,"ECCENTRICITY":0.0001197,"INCLINATION":53.1579,"RA_OF_ASC_NODE":162.4261,"ARG_OF_PERICENTER":121.7235,"MEAN_ANOMALY":238.39,"EPHEMERIS_TYPE":0,"CLASSIFICATION_TYPE":"U","NORAD_CAT_ID":60188,"ELEMENT_SET_NO":999,"REV_AT_EPOCH":9650,"BSTAR":0.00014669776,"MEAN_MOTION_DOT":0.0001722,"MEAN_MOTION_DDOT":0},{"OBJECT_NAME":"HORIZON (RS59S)","OBJECT_ID":"2024-199Y","EPOCH":"2026-03-09T22:30:11.638080","MEAN_MOTION":15.70291895,"ECCENTRICITY":0.00030615,"INCLINATION":97.3063,"RA_OF_ASC_NODE":307.7521,"ARG_OF_PERICENTER":244.864,"MEAN_ANOMALY":115.2305,"EPHEMERIS_TYPE":0,"CLASSIFICATION_TYPE":"U","NORAD_CAT_ID":61757,"ELEMENT_SET_NO":999,"REV_AT_EPOCH":12246,"BSTAR":0.00120059,"MEAN_MOTION_DOT":0.00148042,"MEAN_MOTION_DDOT":0}]
